{"type": "FeatureCollection", "features": [ {"type": "Feature", "properties": {"norad_id": 43622, "name": "BEIDOU-3 M13 (C32)", "group": "beidou", "lat": 21.055854568717216, "lon": -126.13537362741327, "alt_km": 21539.15538653514, "timestamp": "2025-12-18T19:29:52.809763+00:00", "meta": {"OBJECT_NAME": "BEIDOU-3 M13 (C32)", "OBJECT_ID": "2018-072A", "EPOCH": "2025-12-18T01:04:45.751872", "MEAN_MOTION": 1.86231057, "ECCENTRICITY": 0.00059817, "INCLINATION": 56.4642, "RA_OF_ASC_NODE": 68.6443, "ARG_OF_PERICENTER": 299.083, "MEAN_ANOMALY": 60.8858, "EPHEMERIS_TYPE": 0, "CLASSIFICATION_TYPE": "U", "NORAD_CAT_ID": 43622, "ELEMENT_SET_NO": 999, "REV_AT_EPOCH": 4928, "BSTAR": 0, "MEAN_MOTION_DOT": -6.7e-07, "MEAN_MOTION_DDOT": 0}, "tle": {"line1": "1 43622U 18072A   25352.04497398 -.00000067  00000+0  00000+0 0  9998", "line2": "2 43622  56.4642  68.6443 0005981 299.0830  60.8858  1.86231057 49282"}}, "geometry": {"type": "Point", "coordinates": [-126.13537362741327, 21.055854568717216]}}, {"type": "Feature", "properties": {"norad_id": 43623, "name": "BEIDOU-3 M14 (C33)", "group": "beidou", "lat": -48.92427993947879, "lon": -61.93957387954206, "alt_km": 21533.270080296264, "timestamp": "2025-12-18T19:29:52.809774+00:00", "meta": {"OBJECT_NAME": "BEIDOU-3 M14 (C33)", "OBJECT_ID": "2018-072B", "EPOCH": "2025-12-17T08:57:48.957984", "MEAN_MOTION": 1.86231002, "ECCENTRICITY": 0.00033285, "INCLINATION": 56.4654, "RA_OF_ASC_NODE": 68.6605, "ARG_OF_PERICENTER": 332.8139, "MEAN_ANOMALY": 27.1942, "EPHEMERIS_TYPE": 0, "CLASSIFICATION_TYPE": "U", "NORAD_CAT_ID": 43623, "ELEMENT_SET_NO": 999, "REV_AT_EPOCH": 4926, "BSTAR": 0, "MEAN_MOTION_DOT": -7.3e-07, "MEAN_MOTION_DDOT": 0}, "tle": {"line1": "1 43623U 18072B   25351.37348331 -.00000073  00000+0  00000+0 0  9993", "line2": "2 43623  56.4654  68.6605 0003328 332.8139  27.1942  1.86231002 49265"}}, "geometry": {"type": "Point", "coordinates": [-61.93957387954206, -48.92427993947879]}}, {"type": "Feature", "properties": {"norad_id": 43647, "name": "BEIDOU-3 M16 (C35)", "group": "beidou", "lat": 32.09273763726455, "lon": 99.46152699221136, "alt_km": 21533.971000350997, "timestamp": "2025-12-18T19:29:52.809785+00:00", "meta": {"OBJECT_NAME": "BEIDOU-3 M16 (C35)", "OBJECT_ID": "2018-078A", "EPOCH": "2025-12-18T01:38:11.471712", "MEAN_MOTION": 1.86232421, "ECCENTRICITY": 0.00073225, "INCLINATION": 54.2571, "RA_OF_ASC_NODE": 306.335, "ARG_OF_PERICENTER": 19.7633, "MEAN_ANOMALY": 340.2526, "EPHEMERIS_TYPE": 0, "CLASSIFICATION_TYPE": "U", "NORAD_CAT_ID": 43647, "ELEMENT_SET_NO": 999, "REV_AT_EPOCH": 4878, "BSTAR": 0, "MEAN_MOTION_DOT": -8.5e-07, "MEAN_MOTION_DDOT": 0}, "tle": {"line1": "1 43647U 18078A   25352.06818833 -.00000085  00000+0  00000+0 0  9994", "line2": "2 43647  54.2571 306.3350 0007322  19.7633 340.2526  1.86232421 48781"}}, "geometry": {"type": "Point", "coordinates": [99.46152699221136, 32.09273763726455]}}, {"type": "Feature", "properties": {"norad_id": 43648, "name": "BEIDOU-3 M15 (C34)", "group": "beidou", "lat": 40.0089257876196, "lon": -16.5544480137502, "alt_km": 21513.779743779673, "timestamp": "2025-12-18T19:29:52.809797+00:00", "meta": {"OBJECT_NAME": "BEIDOU-3 M15 (C34)", "OBJECT_ID": "2018-078B", "EPOCH": "2025-12-17T15:51:04.131072", "MEAN_MOTION": 1.86232271, "ECCENTRICITY": 0.00039327, "INCLINATION": 54.253, "RA_OF_ASC_NODE": 306.3494, "ARG_OF_PERICENTER": 20.2564, "MEAN_ANOMALY": 339.7463, "EPHEMERIS_TYPE": 0, "CLASSIFICATION_TYPE": "U", "NORAD_CAT_ID": 43648, "ELEMENT_SET_NO": 999, "REV_AT_EPOCH": 4879, "BSTAR": 0, "MEAN_MOTION_DOT": -8.8e-07, "MEAN_MOTION_DDOT": 0}, "tle": {"line1": "1 43648U 18078B   25351.66046448 -.00000088  00000+0  00000+0 0  9998", "line2": "2 43648  54.2530 306.3494 0003932  20.2564 339.7463  1.86232271 48796"}}, "geometry": {"type": "Point", "coordinates": [-16.5544480137502, 40.0089257876196]}}, {"type": "Feature", "properties": {"norad_id": 43683, "name": "BEIDOU-3 G1 (C59)", "group": "beidou", "lat": 2.2147888570938417, "lon": 160.14462652564518, "alt_km": 35779.77876056595, "timestamp": "2025-12-18T19:29:52.809808+00:00", "meta": {"OBJECT_NAME": "BEIDOU-3 G1 (C59)", "OBJECT_ID": "2018-085A", "EPOCH": "2025-12-18T07:06:45.948960", "MEAN_MOTION": 1.00269273, "ECCENTRICITY": 0.0001633, "INCLINATION": 2.6212, "RA_OF_ASC_NODE": 102.8031, "ARG_OF_PERICENTER": 48.7365, "MEAN_ANOMALY": 182.3535, "EPHEMERIS_TYPE": 0, "CLASSIFICATION_TYPE": "U", "NORAD_CAT_ID": 43683, "ELEMENT_SET_NO": 999, "REV_AT_EPOCH": 2624, "BSTAR": 0, "MEAN_MOTION_DOT": -2.55e-06, "MEAN_MOTION_DDOT": 0}, "tle": {"line1": "1 43683U 18085A   25352.29636515 -.00000255  00000+0  00000+0 0  9991", "line2": "2 43683   2.6212 102.8031 0001633  48.7365 182.3535  1.00269273 26241"}}, "geometry": {"type": "Point", "coordinates": [160.14462652564518, 2.2147888570938417]}}, {"type": "Feature", "properties": {"norad_id": 43706, "name": "BEIDOU-3 M17 (C36)", "group": "beidou", "lat": -41.01981343317985, "lon": 149.46308454761567, "alt_km": 21516.02405651324, "timestamp": "2025-12-18T19:29:52.809819+00:00", "meta": {"OBJECT_NAME": "BEIDOU-3 M17 (C36)", "OBJECT_ID": "2018-093A", "EPOCH": "2025-12-15T07:56:44.520576", "MEAN_MOTION": 1.86228523, "ECCENTRICITY": 0.00061371, "INCLINATION": 54.1729, "RA_OF_ASC_NODE": 188.5337, "ARG_OF_PERICENTER": 307.6759, "MEAN_ANOMALY": 184.25, "EPHEMERIS_TYPE": 0, "CLASSIFICATION_TYPE": "U", "NORAD_CAT_ID": 43706, "ELEMENT_SET_NO": 999, "REV_AT_EPOCH": 4811, "BSTAR": 0, "MEAN_MOTION_DOT": 1.13e-06, "MEAN_MOTION_DDOT": 0}, "tle": {"line1": "1 43706U 18093A   25349.33107084  .00000113  00000+0  00000+0 0  9993", "line2": "2 43706  54.1729 188.5337 0006137 307.6759 184.2500  1.86228523 48110"}}, "geometry": {"type": "Point", "coordinates": [149.46308454761567, -41.01981343317985]}}, {"type": "Feature", "properties": {"norad_id": 43707, "name": "BEIDOU-3 M18 (C37)", "group": "beidou", "lat": 30.53636564897413, "lon": -146.34862269352604, "alt_km": 21512.36783675987, "timestamp": "2025-12-18T19:29:52.809830+00:00", "meta": {"OBJECT_NAME": "BEIDOU-3 M18 (C37)", "OBJECT_ID": "2018-093B", "EPOCH": "2025-12-16T14:33:42.784416", "MEAN_MOTION": 1.8622677, "ECCENTRICITY": 0.00063186, "INCLINATION": 54.1735, "RA_OF_ASC_NODE": 188.4822, "ARG_OF_PERICENTER": 353.2257, "MEAN_ANOMALY": 6.8349, "EPHEMERIS_TYPE": 0, "CLASSIFICATION_TYPE": "U", "NORAD_CAT_ID": 43707, "ELEMENT_SET_NO": 999, "REV_AT_EPOCH": 4813, "BSTAR": 0, "MEAN_MOTION_DOT": 1.15e-06, "MEAN_MOTION_DDOT": 0}, "tle": {"line1": "1 43707U 18093B   25350.60674519  .00000115  00000+0  00000+0 0  9990", "line2": "2 43707  54.1735 188.4822 0006318 353.2257   6.8349  1.86226770 48131"}}, "geometry": {"type": "Point", "coordinates": [-146.34862269352604, 30.53636564897413]}}, {"type": "Feature", "properties": {"norad_id": 44204, "name": "BEIDOU-3 IGSO-1 (C38)", "group": "beidou", "lat": 58.34970503620245, "lon": 134.72310201534555, "alt_km": 35859.701738208605, "timestamp": "2025-12-18T19:29:52.809842+00:00", "meta": {"OBJECT_NAME": "BEIDOU-3 IGSO-1 (C38)", "OBJECT_ID": "2019-023A", "EPOCH": "2025-11-19T14:15:02.708640", "MEAN_MOTION": 1.00252177, "ECCENTRICITY": 0.0026966, "INCLINATION": 58.4003, "RA_OF_ASC_NODE": 39.8168, "ARG_OF_PERICENTER": 221.2202, "MEAN_ANOMALY": 126.9723, "EPHEMERIS_TYPE": 0, "CLASSIFICATION_TYPE": "U", "NORAD_CAT_ID": 44204, "ELEMENT_SET_NO": 999, "REV_AT_EPOCH": 510, "BSTAR": 0, "MEAN_MOTION_DOT": -2.26e-06, "MEAN_MOTION_DDOT": 0}, "tle": {"line1": "1 44204U 19023A   25323.59378135 -.00000226  00000+0  00000+0 0  9994", "line2": "2 44204  58.4003  39.8168 0026966 221.2202 126.9723  1.00252177  5102"}}, "geometry": {"type": "Point", "coordinates": [134.72310201534555, 58.34970503620245]}}, {"type": "Feature", "properties": {"norad_id": 44231, "name": "BEIDOU-2 G8 (C01)", "group": "beidou", "lat": 1.679457510860905, "lon": 164.5332585590289, "alt_km": 35818.335454080734, "timestamp": "2025-12-18T19:29:52.809858+00:00", "meta": {"OBJECT_NAME": "BEIDOU-2 G8 (C01)", "OBJECT_ID": "2019-027A", "EPOCH": "2025-12-18T15:41:42.882720", "MEAN_MOTION": 1.0027653, "ECCENTRICITY": 0.0008207, "INCLINATION": 1.6761, "RA_OF_ASC_NODE": 74.7645, "ARG_OF_PERICENTER": 258.5961, "MEAN_ANOMALY": 133.9994, "EPHEMERIS_TYPE": 0, "CLASSIFICATION_TYPE": "U", "NORAD_CAT_ID": 44231, "ELEMENT_SET_NO": 999, "REV_AT_EPOCH": 2427, "BSTAR": 0, "MEAN_MOTION_DOT": -2.23e-06, "MEAN_MOTION_DDOT": 0}, "tle": {"line1": "1 44231U 19027A   25352.65396855 -.00000223  00000+0  00000+0 0  9993", "line2": "2 44231   1.6761  74.7645 0008207 258.5961 133.9994  1.00276530 24270"}}, "geometry": {"type": "Point", "coordinates": [164.5332585590289, 1.679457510860905]}}, {"type": "Feature", "properties": {"norad_id": 44337, "name": "BEIDOU-3 IGSO-2 (C39)", "group": "beidou", "lat": -16.74739722610012, "lon": 148.34416736094295, "alt_km": 35904.932636267135, "timestamp": "2025-12-18T19:29:52.809870+00:00", "meta": {"OBJECT_NAME": "BEIDOU-3 IGSO-2 (C39)", "OBJECT_ID": "2019-035A", "EPOCH": "2025-12-17T20:45:00.400608", "MEAN_MOTION": 1.00269779, "ECCENTRICITY": 0.00374701, "INCLINATION": 55.227, "RA_OF_ASC_NODE": 160.4563, "ARG_OF_PERICENTER": 202.3425, "MEAN_ANOMALY": 154.6367, "EPHEMERIS_TYPE": 0, "CLASSIFICATION_TYPE": "U", "NORAD_CAT_ID": 44337, "ELEMENT_SET_NO": 999, "REV_AT_EPOCH": 2384, "BSTAR": 0, "MEAN_MOTION_DOT": -4.5e-07, "MEAN_MOTION_DDOT": 0}, "tle": {"line1": "1 44337U 19035A   25351.86458797 -.00000045  00000+0  00000+0 0  9997", "line2": "2 44337  55.2270 160.4563 0037470 202.3425 154.6367  1.00269779 23848"}}, "geometry": {"type": "Point", "coordinates": [148.34416736094295, -16.74739722610012]}}]}